ATLAS CENTAUR 2         
1 00694U 63047A   25328.97309421  .00004572  00000+0  54767-3 0  9993
2 00694  30.3581  60.6800 0549645 237.7180 116.9026 14.11605110116814
THOR AGENA D R/B        
1 00733U 64002A   25328.99903806  .00000297  00000+0  12339-3 0  9997
2 00733  99.1219 331.6583 0032472 201.7409 158.2397 14.33944305223295
SL-3 R/B                
1 00877U 64053B   25329.12043120  .00000573  00000+0  13613-3 0  9995
2 00877  65.0769 277.7781 0072275 326.2691  33.3820 14.61248212251512
SL-8 R/B                
1 02802U 67045B   25329.07566373  .00000331  00000+0  99490-4 0  9993
2 02802  74.0095 183.4456 0065069 216.7427 142.9262 14.45515922 73908
SL-8 R/B                
1 03230U 68040B   25329.06137330  .00003274  00000+0  24905-3 0  9998
2 03230  74.0297 167.3349 0024327  13.5138 346.6696 15.02355007 74291
OAO 2                   
1 03597U 68110A   25328.85022318  .00000299  00000+0  85942-4 0  9990
2 03597  34.9917 130.5294 0004890  73.7531 286.3698 14.47227155  3902
ISIS 1                  
1 03669U 69009A   25329.00425947  .00000193  00000+0  14058-3 0  9993
2 03669  88.4496 166.7362 1707045 300.5458  43.7912 11.30344150336702
SERT 2                  
1 04327U 70009A   25328.83056536  .00000071  00000+0  15321-3 0  9990
2 04327  99.2622 272.7327 0005794  74.1416 303.5429 13.58714382765653
SL-3 R/B                
1 05118U 71028B   25329.09436913  .00032867  00000+0  51719-3 0  9990
2 05118  81.2380 180.3955 0020039 305.3646  54.5730 15.53197573972391
ASTEX 1                 
1 05560U 71089A   25328.97703034  .00000704  00000+0  17938-3 0  9995
2 05560  92.7130 117.8737 0017866  80.0920 280.2301 14.50610624847128
SL-8 R/B                
1 05730U 71119B   25329.12506698  .00008956  00000+0  47234-3 0  9992
2 05730  73.8885  10.8042 0560585 358.6311   1.3270 14.35231409640473
OAO 3 (COPERNICUS)      
1 06153U 72065A   25328.97990362  .00000426  00000+0  91978-4 0  9999
2 06153  35.0041 173.8360 0006402  17.5343 129.2517 14.59883512830883
