CCSDS_OMM_VERS = 2.0
CREATION_DATE  = 
ORIGINATOR     = 

OBJECT_NAME    = ATLAS CENTAUR 2
OBJECT_ID      = 1963-047A
CENTER_NAME    = EARTH
REF_FRAME      = TEME
TIME_SYSTEM    = UTC
MEAN_ELEMENT_THEORY = SGP/SGP4

EPOCH          = 2025-11-24T23:21:15.339744
MEAN_MOTION    = 14.11605110
ECCENTRICITY   = .0549645
INCLINATION    = 30.3581
RA_OF_ASC_NODE = 60.6800
ARG_OF_PERICENTER = 237.7180
MEAN_ANOMALY   = 116.9026

EPHEMERIS_TYPE = 0
CLASSIFICATION_TYPE = U
NORAD_CAT_ID   = 694
ELEMENT_SET_NO = 999
REV_AT_EPOCH   = 11681
BSTAR          = .54767E-3
MEAN_MOTION_DOT = .4572E-4
MEAN_MOTION_DDOT = 0

CCSDS_OMM_VERS = 2.0
CREATION_DATE  = 
ORIGINATOR     = 

OBJECT_NAME    = THOR AGENA D R/B
OBJECT_ID      = 1964-002A
CENTER_NAME    = EARTH
REF_FRAME      = TEME
TIME_SYSTEM    = UTC
MEAN_ELEMENT_THEORY = SGP/SGP4

EPOCH          = 2025-11-24T23:58:36.888384
MEAN_MOTION    = 14.33944305
ECCENTRICITY   = .0032472
INCLINATION    = 99.1219
RA_OF_ASC_NODE = 331.6583
ARG_OF_PERICENTER = 201.7409
MEAN_ANOMALY   = 158.2397

EPHEMERIS_TYPE = 0
CLASSIFICATION_TYPE = U
NORAD_CAT_ID   = 733
ELEMENT_SET_NO = 999
REV_AT_EPOCH   = 22329
BSTAR          = .12339E-3
MEAN_MOTION_DOT = .297E-5
MEAN_MOTION_DDOT = 0

CCSDS_OMM_VERS = 2.0
CREATION_DATE  = 
ORIGINATOR     = 

OBJECT_NAME    = SL-3 R/B
OBJECT_ID      = 1964-053B
CENTER_NAME    = EARTH
REF_FRAME      = TEME
TIME_SYSTEM    = UTC
MEAN_ELEMENT_THEORY = SGP/SGP4

EPOCH          = 2025-11-25T02:53:25.255680
MEAN_MOTION    = 14.61248212
ECCENTRICITY   = .0072275
INCLINATION    = 65.0769
RA_OF_ASC_NODE = 277.7781
ARG_OF_PERICENTER = 326.2691
MEAN_ANOMALY   = 33.3820

EPHEMERIS_TYPE = 0
CLASSIFICATION_TYPE = U
NORAD_CAT_ID   = 877
ELEMENT_SET_NO = 999
REV_AT_EPOCH   = 25151
BSTAR          = .13613E-3
MEAN_MOTION_DOT = .573E-5
MEAN_MOTION_DDOT = 0

CCSDS_OMM_VERS = 2.0
CREATION_DATE  = 
ORIGINATOR     = 

OBJECT_NAME    = SL-8 R/B
OBJECT_ID      = 1967-045B
CENTER_NAME    = EARTH
REF_FRAME      = TEME
TIME_SYSTEM    = UTC
MEAN_ELEMENT_THEORY = SGP/SGP4

EPOCH          = 2025-11-25T01:48:57.346272
MEAN_MOTION    = 14.45515922
ECCENTRICITY   = .0065069
INCLINATION    = 74.0095
RA_OF_ASC_NODE = 183.4456
ARG_OF_PERICENTER = 216.7427
MEAN_ANOMALY   = 142.9262

EPHEMERIS_TYPE = 0
CLASSIFICATION_TYPE = U
NORAD_CAT_ID   = 2802
ELEMENT_SET_NO = 999
REV_AT_EPOCH   = 7390
BSTAR          = .9949E-4
MEAN_MOTION_DOT = .331E-5
MEAN_MOTION_DDOT = 0

CCSDS_OMM_VERS = 2.0
CREATION_DATE  = 
ORIGINATOR     = 

OBJECT_NAME    = SL-8 R/B
OBJECT_ID      = 1968-040B
CENTER_NAME    = EARTH
REF_FRAME      = TEME
TIME_SYSTEM    = UTC
MEAN_ELEMENT_THEORY = SGP/SGP4

EPOCH          = 2025-11-25T01:28:22.653120
MEAN_MOTION    = 15.02355007
ECCENTRICITY   = .0024327
INCLINATION    = 74.0297
RA_OF_ASC_NODE = 167.3349
ARG_OF_PERICENTER = 13.5138
MEAN_ANOMALY   = 346.6696

EPHEMERIS_TYPE = 0
CLASSIFICATION_TYPE = U
NORAD_CAT_ID   = 3230
ELEMENT_SET_NO = 999
REV_AT_EPOCH   = 7429
BSTAR          = .24905E-3
MEAN_MOTION_DOT = .3274E-4
MEAN_MOTION_DDOT = 0

CCSDS_OMM_VERS = 2.0
CREATION_DATE  = 
ORIGINATOR     = 

OBJECT_NAME    = OAO 2
OBJECT_ID      = 1968-110A
CENTER_NAME    = EARTH
REF_FRAME      = TEME
TIME_SYSTEM    = UTC
MEAN_ELEMENT_THEORY = SGP/SGP4

EPOCH          = 2025-11-24T20:24:19.282752
MEAN_MOTION    = 14.47227155
ECCENTRICITY   = .000489
INCLINATION    = 34.9917
RA_OF_ASC_NODE = 130.5294
ARG_OF_PERICENTER = 73.7531
MEAN_ANOMALY   = 286.3698

EPHEMERIS_TYPE = 0
CLASSIFICATION_TYPE = U
NORAD_CAT_ID   = 3597
ELEMENT_SET_NO = 999
REV_AT_EPOCH   = 390
BSTAR          = .85942E-4
MEAN_MOTION_DOT = .299E-5
MEAN_MOTION_DDOT = 0

CCSDS_OMM_VERS = 2.0
CREATION_DATE  = 
ORIGINATOR     = 

OBJECT_NAME    = ISIS 1
OBJECT_ID      = 1969-009A
CENTER_NAME    = EARTH
REF_FRAME      = TEME
TIME_SYSTEM    = UTC
MEAN_ELEMENT_THEORY = SGP/SGP4

EPOCH          = 2025-11-25T00:06:08.018208
MEAN_MOTION    = 11.30344150
ECCENTRICITY   = .1707045
INCLINATION    = 88.4496
RA_OF_ASC_NODE = 166.7362
ARG_OF_PERICENTER = 300.5458
MEAN_ANOMALY   = 43.7912

EPHEMERIS_TYPE = 0
CLASSIFICATION_TYPE = U
NORAD_CAT_ID   = 3669
ELEMENT_SET_NO = 999
REV_AT_EPOCH   = 33670
BSTAR          = .14058E-3
MEAN_MOTION_DOT = .193E-5
MEAN_MOTION_DDOT = 0

CCSDS_OMM_VERS = 2.0
CREATION_DATE  = 
ORIGINATOR     = 

OBJECT_NAME    = SERT 2
OBJECT_ID      = 1970-009A
CENTER_NAME    = EARTH
REF_FRAME      = TEME
TIME_SYSTEM    = UTC
MEAN_ELEMENT_THEORY = SGP/SGP4

EPOCH          = 2025-11-24T19:56:00.847104
MEAN_MOTION    = 13.58714382
ECCENTRICITY   = .0005794
INCLINATION    = 99.2622
RA_OF_ASC_NODE = 272.7327
ARG_OF_PERICENTER = 74.1416
MEAN_ANOMALY   = 303.5429

EPHEMERIS_TYPE = 0
CLASSIFICATION_TYPE = U
NORAD_CAT_ID   = 4327
ELEMENT_SET_NO = 999
REV_AT_EPOCH   = 76565
BSTAR          = .15321E-3
MEAN_MOTION_DOT = .71E-6
MEAN_MOTION_DDOT = 0

CCSDS_OMM_VERS = 2.0
CREATION_DATE  = 
ORIGINATOR     = 

OBJECT_NAME    = SL-3 R/B
OBJECT_ID      = 1971-028B
CENTER_NAME    = EARTH
REF_FRAME      = TEME
TIME_SYSTEM    = UTC
MEAN_ELEMENT_THEORY = SGP/SGP4

EPOCH          = 2025-11-25T02:15:53.492832
MEAN_MOTION    = 15.53197573
ECCENTRICITY   = .0020039
INCLINATION    = 81.2380
RA_OF_ASC_NODE = 180.3955
ARG_OF_PERICENTER = 305.3646
MEAN_ANOMALY   = 54.5730

EPHEMERIS_TYPE = 0
CLASSIFICATION_TYPE = U
NORAD_CAT_ID   = 5118
ELEMENT_SET_NO = 999
REV_AT_EPOCH   = 97239
BSTAR          = .51719E-3
MEAN_MOTION_DOT = .32867E-3
MEAN_MOTION_DDOT = 0

CCSDS_OMM_VERS = 2.0
CREATION_DATE  = 
ORIGINATOR     = 

OBJECT_NAME    = ASTEX 1
OBJECT_ID      = 1971-089A
CENTER_NAME    = EARTH
REF_FRAME      = TEME
TIME_SYSTEM    = UTC
MEAN_ELEMENT_THEORY = SGP/SGP4

EPOCH          = 2025-11-24T23:26:55.421376
MEAN_MOTION    = 14.50610624
ECCENTRICITY   = .0017866
INCLINATION    = 92.7130
RA_OF_ASC_NODE = 117.8737
ARG_OF_PERICENTER = 80.0920
MEAN_ANOMALY   = 280.2301

EPHEMERIS_TYPE = 0
CLASSIFICATION_TYPE = U
NORAD_CAT_ID   = 5560
ELEMENT_SET_NO = 999
REV_AT_EPOCH   = 84712
BSTAR          = .17938E-3
MEAN_MOTION_DOT = .704E-5
MEAN_MOTION_DDOT = 0

CCSDS_OMM_VERS = 2.0
CREATION_DATE  = 
ORIGINATOR     = 

OBJECT_NAME    = SL-8 R/B
OBJECT_ID      = 1971-119B
CENTER_NAME    = EARTH
REF_FRAME      = TEME
TIME_SYSTEM    = UTC
MEAN_ELEMENT_THEORY = SGP/SGP4

EPOCH          = 2025-11-25T03:00:05.787072
MEAN_MOTION    = 14.35231409
ECCENTRICITY   = .0560585
INCLINATION    = 73.8885
RA_OF_ASC_NODE = 10.8042
ARG_OF_PERICENTER = 358.6311
MEAN_ANOMALY   = 1.3270

EPHEMERIS_TYPE = 0
CLASSIFICATION_TYPE = U
NORAD_CAT_ID   = 5730
ELEMENT_SET_NO = 999
REV_AT_EPOCH   = 64047
BSTAR          = .47234E-3
MEAN_MOTION_DOT = .8956E-4
MEAN_MOTION_DDOT = 0

CCSDS_OMM_VERS = 2.0
CREATION_DATE  = 
ORIGINATOR     = 

OBJECT_NAME    = OAO 3 (COPERNICUS)
OBJECT_ID      = 1972-065A
CENTER_NAME    = EARTH
REF_FRAME      = TEME
TIME_SYSTEM    = UTC
MEAN_ELEMENT_THEORY = SGP/SGP4

EPOCH          = 2025-11-24T23:31:03.672768
MEAN_MOTION    = 14.59883512
ECCENTRICITY   = .0006402
INCLINATION    = 35.0041
RA_OF_ASC_NODE = 173.8360
ARG_OF_PERICENTER = 17.5343
MEAN_ANOMALY   = 129.2517

EPHEMERIS_TYPE = 0
CLASSIFICATION_TYPE = U
NORAD_CAT_ID   = 6153
ELEMENT_SET_NO = 999
REV_AT_EPOCH   = 83088
BSTAR          = .91978E-4
MEAN_MOTION_DOT = .426E-5
MEAN_MOTION_DDOT = 0

